[{"OBJECT_NAME":"STARLINK-5925","OBJECT_ID":"2023-037AH","EPOCH":"2026-03-09T23:11:40.361568","MEAN_MOTION":14.983322,"ECCENTRICITY":0.00028532,"INCLINATION":69.9988,"RA_OF_ASC_NODE":283.678,"ARG_OF_PERICENTER":265.9401,"MEAN_ANOMALY":94.1432,"EPHEMERIS_TYPE":0,"CLASSIFICATION_TYPE":"U","NORAD_CAT_ID":55945,"ELEMENT_SET_NO":999,"REV_AT_EPOCH":16402,"BSTAR":-1.0373974e-5,"MEAN_MOTION_DOT":-2.17e-6,"MEAN_MOTION_DDOT":0},{"OBJECT_NAME":"PSLV DEB","OBJECT_ID":"2001-049NQ","EPOCH":"2026-03-09T02:43:10.058304","MEAN_MOTION":14.89489046,"ECCENTRICITY":0.00529867,"INCLINATION":98.0964,"RA_OF_ASC_NODE":127.0334,"ARG_OF_PERICENTER":97.8554,"MEAN_ANOMALY":262.8682,"EPHEMERIS_TYPE":0,"CLASSIFICATION_TYPE":"U","NORAD_CAT_ID":27653,"ELEMENT_SET_NO":999,"REV_AT_EPOCH":27440,"BSTAR":0.00043563035,"MEAN_MOTION_DOT":4.198e-5,"MEAN_MOTION_DDOT":0}]
